YAOGAN-27               
1 40878U 15040A   25165.84535912 -.00000039  00000+0  77167-5 0  9998
2 40878 100.0863 163.7209 0008089 348.1899  11.9024 13.16049724470850
GAOFEN-9 01             
1 40894U 15047A   25165.86382130  .00000957  00000+0  12675-3 0  9996
2 40894  97.6767 212.3931 0026340 263.6638  96.1575 14.81876019525773
LAPAN-A2 (IO-86)        
1 40931U 15052B   25151.18580175  .00001241  00000+0  78118-4 0  9995
2 40931   6.0006  24.0987 0012733 338.8432  21.1169 14.78805930523047
YAOGAN-28               
1 41026U 15064A   25165.77563130  .00006942  00000+0  29268-3 0  9990
2 41026  97.2590 309.1432 0014841  32.7675 327.4480 15.23520193534693
YAOGAN-29               
1 41038U 15069A   25165.76123795  .00000402  00000+0  56690-4 0  9991
2 41038  98.0340 188.1691 0002734 114.8680 245.2817 14.82641612516174
KENT RIDGE 1            
1 41167U 15077B   25165.21672655  .00004143  00000+0  15327-3 0  9994
2 41167  14.9791 116.0554 0008876  99.1521 260.9805 15.20006370525107
TELEOS-1                
1 41169U 15077D   25165.28238786  .00679020  17269-3  11482-2 0  9994
2 41169  14.9752 241.5597 0002727 109.8276 250.2351 16.01201677527176
GAOFEN-4                
1 41194U 15083A   25165.89530899 -.00000322  00000+0  00000+0 0  9992
2 41194   0.0243 269.5725 0000974 173.1808 248.6887  1.00271609 34808
JASON-3                 
1 41240U 16002A   25165.54614009 -.00000063  00000+0 -45063-5 0  9991
2 41240  66.0392 178.7650 0008303 268.7512  91.2556 12.87537720439914
SENTINEL-3A             
1 41335U 16011A   25165.87620912  .00000113  00000+0  64877-4 0  9999
2 41335  98.6253 233.4994 0001412 103.9843 256.1494 14.26733474485684
ZIYUAN 3-2 (ZY 3-2)     
1 41556U 16033A   25165.77442218  .00006519  00000+0  29238-3 0  9995
2 41556  97.4190 242.7441 0009583 143.0194 217.1704 15.21504020502126
CARTOSAT-2C             
1 41599U 16040A   25165.73730619  .00004601  00000+0  22100-3 0  9992
2 41599  97.4216 225.8137 0010774 336.3981  23.6758 15.19287896497927
SKYSAT-C1               
1 41601U 16040C   25165.69009685  .00007905  00000+0  27496-3 0  9996
2 41601  97.0050 213.0863 0003489  81.1225 279.0411 15.29949975501584
LAPAN-A3                
1 41603U 16040E   25165.86394497  .00003549  00000+0  12500-3 0  9995
2 41603  97.1364 170.2640 0009193 246.5158 113.5117 15.29892972498597
