[
  {
    "OBJECT_NAME": "YAOGAN-27",
    "OBJECT_ID": "2015-040A",
    "EPOCH": "2025-06-14T20:17:19.027968",
    "MEAN_MOTION": 13.16049724,
    "ECCENTRICITY": 0.0008089,
    "INCLINATION": 100.0863,
    "RA_OF_ASC_NODE": 163.7209,
    "ARG_OF_PERICENTER": 348.1899,
    "MEAN_ANOMALY": 11.9024,
    "EPHEMERIS_TYPE": 0,
    "CLASSIFICATION_TYPE": "U",
    "NORAD_CAT_ID": 40878,
    "ELEMENT_SET_NO": 999,
    "REV_AT_EPOCH": 47085,
    "BSTAR": 7.7167e-06,
    "MEAN_MOTION_DOT": -3.9e-07,
    "MEAN_MOTION_DDOT": 0
  },
  {
    "OBJECT_NAME": "GAOFEN-9 01",
    "OBJECT_ID": "2015-047A",
    "EPOCH": "2025-06-14T20:43:54.160320",
    "MEAN_MOTION": 14.81876019,
    "ECCENTRICITY": 0.002634,
    "INCLINATION": 97.6767,
    "RA_OF_ASC_NODE": 212.3931,
    "ARG_OF_PERICENTER": 263.6638,
    "MEAN_ANOMALY": 96.1575,
    "EPHEMERIS_TYPE": 0,
    "CLASSIFICATION_TYPE": "U",
    "NORAD_CAT_ID": 40894,
    "ELEMENT_SET_NO": 999,
    "REV_AT_EPOCH": 52577,
    "BSTAR": 0.00012675,
    "MEAN_MOTION_DOT": 9.57e-06,
    "MEAN_MOTION_DDOT": 0
  },
  {
    "OBJECT_NAME": "LAPAN-A2 (IO-86)",
    "OBJECT_ID": "2015-052B",
    "EPOCH": "2025-05-31T04:27:33.271200",
    "MEAN_MOTION": 14.7880593,
    "ECCENTRICITY": 0.0012733,
    "INCLINATION": 6.0006,
    "RA_OF_ASC_NODE": 24.0987,
    "ARG_OF_PERICENTER": 338.8432,
    "MEAN_ANOMALY": 21.1169,
    "EPHEMERIS_TYPE": 0,
    "CLASSIFICATION_TYPE": "U",
    "NORAD_CAT_ID": 40931,
    "ELEMENT_SET_NO": 999,
    "REV_AT_EPOCH": 52304,
    "BSTAR": 7.8118e-05,
    "MEAN_MOTION_DOT": 1.241e-05,
    "MEAN_MOTION_DDOT": 0
  },
  {
    "OBJECT_NAME": "YAOGAN-28",
    "OBJECT_ID": "2015-064A",
    "EPOCH": "2025-06-14T18:36:54.544320",
    "MEAN_MOTION": 15.23520193,
    "ECCENTRICITY": 0.0014841,
    "INCLINATION": 97.259,
    "RA_OF_ASC_NODE": 309.1432,
    "ARG_OF_PERICENTER": 32.7675,
    "MEAN_ANOMALY": 327.448,
    "EPHEMERIS_TYPE": 0,
    "CLASSIFICATION_TYPE": "U",
    "NORAD_CAT_ID": 41026,
    "ELEMENT_SET_NO": 999,
    "REV_AT_EPOCH": 53469,
    "BSTAR": 0.00029268,
    "MEAN_MOTION_DOT": 6.942e-05,
    "MEAN_MOTION_DDOT": 0
  },
  {
    "OBJECT_NAME": "YAOGAN-29",
    "OBJECT_ID": "2015-069A",
    "EPOCH": "2025-06-14T18:16:10.958880",
    "MEAN_MOTION": 14.82641612,
    "ECCENTRICITY": 0.0002734,
    "INCLINATION": 98.034,
    "RA_OF_ASC_NODE": 188.1691,
    "ARG_OF_PERICENTER": 114.868,
    "MEAN_ANOMALY": 245.2817,
    "EPHEMERIS_TYPE": 0,
    "CLASSIFICATION_TYPE": "U",
    "NORAD_CAT_ID": 41038,
    "ELEMENT_SET_NO": 999,
    "REV_AT_EPOCH": 51617,
    "BSTAR": 5.669e-05,
    "MEAN_MOTION_DOT": 4.02e-06,
    "MEAN_MOTION_DDOT": 0
  },
  {
    "OBJECT_NAME": "KENT RIDGE 1",
    "OBJECT_ID": "2015-077B",
    "EPOCH": "2025-06-14T05:12:05.173920",
    "MEAN_MOTION": 15.2000637,
    "ECCENTRICITY": 0.0008876,
    "INCLINATION": 14.9791,
    "RA_OF_ASC_NODE": 116.0554,
    "ARG_OF_PERICENTER": 99.1521,
    "MEAN_ANOMALY": 260.9805,
    "EPHEMERIS_TYPE": 0,
    "CLASSIFICATION_TYPE": "U",
    "NORAD_CAT_ID": 41167,
    "ELEMENT_SET_NO": 999,
    "REV_AT_EPOCH": 52510,
    "BSTAR": 0.00015327,
    "MEAN_MOTION_DOT": 4.143e-05,
    "MEAN_MOTION_DDOT": 0
  },
  {
    "OBJECT_NAME": "TELEOS-1",
    "OBJECT_ID": "2015-077D",
    "EPOCH": "2025-06-14T06:46:38.311104",
    "MEAN_MOTION": 16.01201677,
    "ECCENTRICITY": 0.0002727,
    "INCLINATION": 14.9752,
    "RA_OF_ASC_NODE": 241.5597,
    "ARG_OF_PERICENTER": 109.8276,
    "MEAN_ANOMALY": 250.2351,
    "EPHEMERIS_TYPE": 0,
    "CLASSIFICATION_TYPE": "U",
    "NORAD_CAT_ID": 41169,
    "ELEMENT_SET_NO": 999,
    "REV_AT_EPOCH": 52717,
    "BSTAR": 0.0011482,
    "MEAN_MOTION_DOT": 0.0067902,
    "MEAN_MOTION_DDOT": 0.00017269
  },
  {
    "OBJECT_NAME": "GAOFEN-4",
    "OBJECT_ID": "2015-083A",
    "EPOCH": "2025-06-14T21:29:14.696736",
    "MEAN_MOTION": 1.00271609,
    "ECCENTRICITY": 9.74e-05,
    "INCLINATION": 0.0243,
    "RA_OF_ASC_NODE": 269.5725,
    "ARG_OF_PERICENTER": 173.1808,
    "MEAN_ANOMALY": 248.6887,
    "EPHEMERIS_TYPE": 0,
    "CLASSIFICATION_TYPE": "U",
    "NORAD_CAT_ID": 41194,
    "ELEMENT_SET_NO": 999,
    "REV_AT_EPOCH": 3480,
    "BSTAR": 0,
    "MEAN_MOTION_DOT": -3.22e-06,
    "MEAN_MOTION_DDOT": 0
  },
  {
    "OBJECT_NAME": "JASON-3",
    "OBJECT_ID": "2016-002A",
    "EPOCH": "2025-06-14T13:06:26.503776",
    "MEAN_MOTION": 12.8753772,
    "ECCENTRICITY": 0.0008303,
    "INCLINATION": 66.0392,
    "RA_OF_ASC_NODE": 178.765,
    "ARG_OF_PERICENTER": 268.7512,
    "MEAN_ANOMALY": 91.2556,
    "EPHEMERIS_TYPE": 0,
    "CLASSIFICATION_TYPE": "U",
    "NORAD_CAT_ID": 41240,
    "ELEMENT_SET_NO": 999,
    "REV_AT_EPOCH": 43991,
    "BSTAR": -4.5063e-06,
    "MEAN_MOTION_DOT": -6.3e-07,
    "MEAN_MOTION_DDOT": 0
  },
  {
    "OBJECT_NAME": "SENTINEL-3A",
    "OBJECT_ID": "2016-011A",
    "EPOCH": "2025-06-14T21:01:44.467968",
    "MEAN_MOTION": 14.26733474,
    "ECCENTRICITY": 0.0001412,
    "INCLINATION": 98.6253,
    "RA_OF_ASC_NODE": 233.4994,
    "ARG_OF_PERICENTER": 103.9843,
    "MEAN_ANOMALY": 256.1494,
    "EPHEMERIS_TYPE": 0,
    "CLASSIFICATION_TYPE": "U",
    "NORAD_CAT_ID": 41335,
    "ELEMENT_SET_NO": 999,
    "REV_AT_EPOCH": 48568,
    "BSTAR": 6.4877e-05,
    "MEAN_MOTION_DOT": 1.13e-06,
    "MEAN_MOTION_DDOT": 0
  },
  {
    "OBJECT_NAME": "ZIYUAN 3-2 (ZY 3-2)",
    "OBJECT_ID": "2016-033A",
    "EPOCH": "2025-06-14T18:35:10.076352",
    "MEAN_MOTION": 15.2150402,
    "ECCENTRICITY": 0.0009583,
    "INCLINATION": 97.419,
    "RA_OF_ASC_NODE": 242.7441,
    "ARG_OF_PERICENTER": 143.0194,
    "MEAN_ANOMALY": 217.1704,
    "EPHEMERIS_TYPE": 0,
    "CLASSIFICATION_TYPE": "U",
    "NORAD_CAT_ID": 41556,
    "ELEMENT_SET_NO": 999,
    "REV_AT_EPOCH": 50212,
    "BSTAR": 0.00029238,
    "MEAN_MOTION_DOT": 6.519e-05,
    "MEAN_MOTION_DDOT": 0
  },
  {
    "OBJECT_NAME": "CARTOSAT-2C",
    "OBJECT_ID": "2016-040A",
    "EPOCH": "2025-06-14T17:41:43.254816",
    "MEAN_MOTION": 15.19287896,
    "ECCENTRICITY": 0.0010774,
    "INCLINATION": 97.4216,
    "RA_OF_ASC_NODE": 225.8137,
    "ARG_OF_PERICENTER": 336.3981,
    "MEAN_ANOMALY": 23.6758,
    "EPHEMERIS_TYPE": 0,
    "CLASSIFICATION_TYPE": "U",
    "NORAD_CAT_ID": 41599,
    "ELEMENT_SET_NO": 999,
    "REV_AT_EPOCH": 49792,
    "BSTAR": 0.000221,
    "MEAN_MOTION_DOT": 4.601e-05,
    "MEAN_MOTION_DDOT": 0
  },
  {
    "OBJECT_NAME": "SKYSAT-C1",
    "OBJECT_ID": "2016-040C",
    "EPOCH": "2025-06-14T16:33:44.367840",
    "MEAN_MOTION": 15.29949975,
    "ECCENTRICITY": 0.0003489,
    "INCLINATION": 97.005,
    "RA_OF_ASC_NODE": 213.0863,
    "ARG_OF_PERICENTER": 81.1225,
    "MEAN_ANOMALY": 279.0411,
    "EPHEMERIS_TYPE": 0,
    "CLASSIFICATION_TYPE": "U",
    "NORAD_CAT_ID": 41601,
    "ELEMENT_SET_NO": 999,
    "REV_AT_EPOCH": 50158,
    "BSTAR": 0.00027496,
    "MEAN_MOTION_DOT": 7.905e-05,
    "MEAN_MOTION_DDOT": 0
  },
  {
    "OBJECT_NAME": "LAPAN-A3",
    "OBJECT_ID": "2016-040E",
    "EPOCH": "2025-06-14T20:44:04.845408",
    "MEAN_MOTION": 15.29892972,
    "ECCENTRICITY": 0.0009193,
    "INCLINATION": 97.1364,
    "RA_OF_ASC_NODE": 170.264,
    "ARG_OF_PERICENTER": 246.5158,
    "MEAN_ANOMALY": 113.5117,
    "EPHEMERIS_TYPE": 0,
    "CLASSIFICATION_TYPE": "U",
    "NORAD_CAT_ID": 41603,
    "ELEMENT_SET_NO": 999,
    "REV_AT_EPOCH": 49859,
    "BSTAR": 0.000125,
    "MEAN_MOTION_DOT": 3.549e-05,
    "MEAN_MOTION_DDOT": 0
  }
]